[{"OBJECT_NAME":"STARLINK-32642","OBJECT_ID":"2024-229V","EPOCH":"2026-03-09T13:21:28.450656","MEAN_MOTION":15.27582698,"ECCENTRICITY":0.00016186,"INCLINATION":42.9996,"RA_OF_ASC_NODE":271.2385,"ARG_OF_PERICENTER":234.8632,"MEAN_ANOMALY":125.2068,"EPHEMERIS_TYPE":0,"CLASSIFICATION_TYPE":"U","NORAD_CAT_ID":62211,"ELEMENT_SET_NO":999,"REV_AT_EPOCH":7054,"BSTAR":0.0010623194,"MEAN_MOTION_DOT":0.00029089,"MEAN_MOTION_DDOT":0},{"OBJECT_NAME":"TRANSPORTER-1 OBJECT L","OBJECT_ID":"2021-006L","EPOCH":"2026-03-09T22:38:42.795168","MEAN_MOTION":15.33192932,"ECCENTRICITY":0.00114726,"INCLINATION":97.2368,"RA_OF_ASC_NODE":117.6447,"ARG_OF_PERICENTER":180.5165,"MEAN_ANOMALY":179.6068,"EPHEMERIS_TYPE":0,"CLASSIFICATION_TYPE":"U","NORAD_CAT_ID":47423,"ELEMENT_SET_NO":999,"REV_AT_EPOCH":28445,"BSTAR":0.00025636794,"MEAN_MOTION_DOT":8.162e-5,"MEAN_MOTION_DDOT":0}]
